ONEWEB-0233             
1 48795U 21045AE  26110.29132480  .00000065  00000+0  13797-3 0  9994
2 48795  87.8940 270.7849 0001922  87.1156 273.0194 13.15548650236689
ONEWEB-0190             
1 48796U 21045AF  26109.82243840  .00000050  00000+0  97896-4 0  9992
2 48796  87.8937 270.8399 0002557  87.6985 272.4438 13.15545488236698
ONEWEB-0236             
1 48797U 21045AG  26110.14409492  .00000070  00000+0  15259-3 0  9991
2 48797  87.8937 270.7865 0001674  97.5084 262.6236 13.15547860236621
ONEWEB-0248             
1 48798U 21045AH  26110.15677518 -.00000084  00000+0 -25608-3 0  9995
2 48798  87.8948 270.7613 0001943  81.5944 278.5406 13.15549456236787
ONEWEB-0225             
1 48799U 21045AJ  26110.17894783 -.00000050  00000+0 -16755-3 0  9999
2 48799  87.8940 270.7694 0002262  85.5347 274.6042 13.15548233236791
ONEWEB-0215             
1 48800U 21045AK  26110.14885223 -.00000003  00000+0 -42513-4 0  9998
2 48800  87.8955 270.7526 0002249  80.3851 279.7533 13.15547949236662
ONEWEB-0216             
1 48801U 21045AL  26110.15836000 -.00000069  00000+0 -21799-3 0  9993
2 48801  87.8943 270.7676 0001841  97.8998 262.2342 13.15548060236679
ONEWEB-0239             
1 48802U 21045AM  26110.16310687 -.00000136  00000+0 -39641-3 0  9993
2 48802  87.8935 270.7777 0002157  73.3000 286.8367 13.15548458236712
ONEWEB-0249             
1 48967U 21060A   26110.06721485 -.00000079  00000+0 -23932-3 0  9995
2 48967  87.9070 240.3223 0001832  97.6158 262.5181 13.16594868231960
ONEWEB-0250             
1 48968U 21060B   26110.04633394 -.00000004  00000+0 -40281-4 0  9990
2 48968  87.9074 238.2715 0001106  75.0866 285.0393 13.25830284232519
ONEWEB-0252             
1 48970U 21060D   26110.09809471  .00000048  00000+0  92614-4 0  9992
2 48970  87.9068 240.3082 0002075 104.5817 255.5544 13.16593584232010
ONEWEB-0253             
1 48971U 21060E   26110.31499017 -.00000457  00000+0 -12288-2 0  9992
2 48971  87.9082 240.2711 0001875  96.6765 263.4579 13.16597287231979
ONEWEB-0254             
1 48972U 21060F   26110.09651437  .00000016  00000+0  82962-5 0  9992
2 48972  87.9071 240.3105 0001875  91.0521 269.0825 13.16593440231945
ONEWEB-0255             
1 48973U 21060G   26110.28649884  .00000107  00000+0  24725-3 0  9999
2 48973  87.9073 240.2808 0001907  95.3030 264.8319 13.16595766232041
ONEWEB-0256             
1 48974U 21060H   26110.31261717 -.00000148  00000+0 -42079-3 0  9998
2 48974  87.9067 240.2830 0002024 102.7011 257.4346 13.16592974232016
ONEWEB-0257             
1 48975U 21060J   26110.11709536  .00000035  00000+0  57157-4 0  9990
2 48975  87.9070 240.3058 0001998  98.7426 261.3931 13.16593744231948
