[{"OBJECT_NAME":"ONEWEB-0233","OBJECT_ID":"2021-045AE","EPOCH":"2026-04-20T06:59:30.462720","MEAN_MOTION":13.1554865,"ECCENTRICITY":0.0001922,"INCLINATION":87.894,"RA_OF_ASC_NODE":270.7849,"ARG_OF_PERICENTER":87.1156,"MEAN_ANOMALY":273.0194,"EPHEMERIS_TYPE":0,"CLASSIFICATION_TYPE":"U","NORAD_CAT_ID":48795,"ELEMENT_SET_NO":999,"REV_AT_EPOCH":23668,"BSTAR":0.00013797,"MEAN_MOTION_DOT":6.5e-07,"MEAN_MOTION_DDOT":0.0},{"OBJECT_NAME":"ONEWEB-0190","OBJECT_ID":"2021-045AF","EPOCH":"2026-04-19T19:44:18.677760","MEAN_MOTION":13.15545488,"ECCENTRICITY":0.0002557,"INCLINATION":87.8937,"RA_OF_ASC_NODE":270.8399,"ARG_OF_PERICENTER":87.6985,"MEAN_ANOMALY":272.4438,"EPHEMERIS_TYPE":0,"CLASSIFICATION_TYPE":"U","NORAD_CAT_ID":48796,"ELEMENT_SET_NO":999,"REV_AT_EPOCH":23669,"BSTAR":9.789600000000001e-05,"MEAN_MOTION_DOT":5e-07,"MEAN_MOTION_DDOT":0.0},{"OBJECT_NAME":"ONEWEB-0236","OBJECT_ID":"2021-045AG","EPOCH":"2026-04-20T03:27:29.801088","MEAN_MOTION":13.1554786,"ECCENTRICITY":0.0001674,"INCLINATION":87.8937,"RA_OF_ASC_NODE":270.7865,"ARG_OF_PERICENTER":97.5084,"MEAN_ANOMALY":262.6236,"EPHEMERIS_TYPE":0,"CLASSIFICATION_TYPE":"U","NORAD_CAT_ID":48797,"ELEMENT_SET_NO":999,"REV_AT_EPOCH":23662,"BSTAR":0.00015259,"MEAN_MOTION_DOT":7e-07,"MEAN_MOTION_DDOT":0.0},{"OBJECT_NAME":"ONEWEB-0248","OBJECT_ID":"2021-045AH","EPOCH":"2026-04-20T03:45:45.375552","MEAN_MOTION":13.15549456,"ECCENTRICITY":0.0001943,"INCLINATION":87.8948,"RA_OF_ASC_NODE":270.7613,"ARG_OF_PERICENTER":81.5944,"MEAN_ANOMALY":278.5406,"EPHEMERIS_TYPE":0,"CLASSIFICATION_TYPE":"U","NORAD_CAT_ID":48798,"ELEMENT_SET_NO":999,"REV_AT_EPOCH":23678,"BSTAR":-0.00025608,"MEAN_MOTION_DOT":-8.4e-07,"MEAN_MOTION_DDOT":0.0},{"OBJECT_NAME":"ONEWEB-0225","OBJECT_ID":"2021-045AJ","EPOCH":"2026-04-20T04:17:41.092512","MEAN_MOTION":13.15548233,"ECCENTRICITY":0.0002262,"INCLINATION":87.894,"RA_OF_ASC_NODE":270.7694,"ARG_OF_PERICENTER":85.5347,"MEAN_ANOMALY":274.6042,"EPHEMERIS_TYPE":0,"CLASSIFICATION_TYPE":"U","NORAD_CAT_ID":48799,"ELEMENT_SET_NO":999,"REV_AT_EPOCH":23679,"BSTAR":-0.00016755,"MEAN_MOTION_DOT":-5e-07,"MEAN_MOTION_DDOT":0.0},{"OBJECT_NAME":"ONEWEB-0215","OBJECT_ID":"2021-045AK","EPOCH":"2026-04-20T03:34:20.832672","MEAN_MOTION":13.15547949,"ECCENTRICITY":0.0002249,"INCLINATION":87.8955,"RA_OF_ASC_NODE":270.7526,"ARG_OF_PERICENTER":80.3851,"MEAN_ANOMALY":279.7533,"EPHEMERIS_TYPE":0,"CLASSIFICATION_TYPE":"U","NORAD_CAT_ID":48800,"ELEMENT_SET_NO":999,"REV_AT_EPOCH":23666,"BSTAR":-4.2513000000000004e-05,"MEAN_MOTION_DOT":-3e-08,"MEAN_MOTION_DDOT":0.0},{"OBJECT_NAME":"ONEWEB-0216","OBJECT_ID":"2021-045AL","EPOCH":"2026-04-20T03:48:02.304000","MEAN_MOTION":13.1554806,"ECCENTRICITY":0.0001841,"INCLINATION":87.8943,"RA_OF_ASC_NODE":270.7676,"ARG_OF_PERICENTER":97.8998,"MEAN_ANOMALY":262.2342,"EPHEMERIS_TYPE":0,"CLASSIFICATION_TYPE":"U","NORAD_CAT_ID":48801,"ELEMENT_SET_NO":999,"REV_AT_EPOCH":23667,"BSTAR":-0.00021799,"MEAN_MOTION_DOT":-6.9e-07,"MEAN_MOTION_DDOT":0.0},{"OBJECT_NAME":"ONEWEB-0239","OBJECT_ID":"2021-045AM","EPOCH":"2026-04-20T03:54:52.433568","MEAN_MOTION":13.15548458,"ECCENTRICITY":0.0002157,"INCLINATION":87.8935,"RA_OF_ASC_NODE":270.7777,"ARG_OF_PERICENTER":73.3,"MEAN_ANOMALY":286.8367,"EPHEMERIS_TYPE":0,"CLASSIFICATION_TYPE":"U","NORAD_CAT_ID":48802,"ELEMENT_SET_NO":999,"REV_AT_EPOCH":23671,"BSTAR":-0.00039641,"MEAN_MOTION_DOT":-1.36e-06,"MEAN_MOTION_DDOT":0.0},{"OBJECT_NAME":"ONEWEB-0249","OBJECT_ID":"2021-060A","EPOCH":"2026-04-20T01:36:47.363040","MEAN_MOTION":13.16594868,"ECCENTRICITY":0.0001832,"INCLINATION":87.907,"RA_OF_ASC_NODE":240.3223,"ARG_OF_PERICENTER":97.6158,"MEAN_ANOMALY":262.5181,"EPHEMERIS_TYPE":0,"CLASSIFICATION_TYPE":"U","NORAD_CAT_ID":48967,"ELEMENT_SET_NO":999,"REV_AT_EPOCH":23196,"BSTAR":-0.00023932,"MEAN_MOTION_DOT":-7.9e-07,"MEAN_MOTION_DDOT":0.0},{"OBJECT_NAME":"ONEWEB-0250","OBJECT_ID":"2021-060B","EPOCH":"2026-04-20T01:06:43.252416","MEAN_MOTION":13.25830284,"ECCENTRICITY":0.0001106,"INCLINATION":87.9074,"RA_OF_ASC_NODE":238.2715,"ARG_OF_PERICENTER":75.0866,"MEAN_ANOMALY":285.0393,"EPHEMERIS_TYPE":0,"CLASSIFICATION_TYPE":"U","NORAD_CAT_ID":48968,"ELEMENT_SET_NO":999,"REV_AT_EPOCH":23251,"BSTAR":-4.0281e-05,"MEAN_MOTION_DOT":-4e-08,"MEAN_MOTION_DDOT":0.0},{"OBJECT_NAME":"ONEWEB-0252","OBJECT_ID":"2021-060D","EPOCH":"2026-04-20T02:21:15.382944","MEAN_MOTION":13.16593584,"ECCENTRICITY":0.0002075,"INCLINATION":87.9068,"RA_OF_ASC_NODE":240.3082,"ARG_OF_PERICENTER":104.5817,"MEAN_ANOMALY":255.5544,"EPHEMERIS_TYPE":0,"CLASSIFICATION_TYPE":"U","NORAD_CAT_ID":48970,"ELEMENT_SET_NO":999,"REV_AT_EPOCH":23201,"BSTAR":9.2614e-05,"MEAN_MOTION_DOT":4.8e-07,"MEAN_MOTION_DDOT":0.0},{"OBJECT_NAME":"ONEWEB-0253","OBJECT_ID":"2021-060E","EPOCH":"2026-04-20T07:33:35.150688","MEAN_MOTION":13.16597287,"ECCENTRICITY":0.0001875,"INCLINATION":87.9082,"RA_OF_ASC_NODE":240.2711,"ARG_OF_PERICENTER":96.6765,"MEAN_ANOMALY":263.4579,"EPHEMERIS_TYPE":0,"CLASSIFICATION_TYPE":"U","NORAD_CAT_ID":48971,"ELEMENT_SET_NO":999,"REV_AT_EPOCH":23197,"BSTAR":-0.0012288000000000002,"MEAN_MOTION_DOT":-4.57e-06,"MEAN_MOTION_DDOT":0.0},{"OBJECT_NAME":"ONEWEB-0254","OBJECT_ID":"2021-060F","EPOCH":"2026-04-20T02:18:58.841568","MEAN_MOTION":13.1659344,"ECCENTRICITY":0.0001875,"INCLINATION":87.9071,"RA_OF_ASC_NODE":240.3105,"ARG_OF_PERICENTER":91.0521,"MEAN_ANOMALY":269.0825,"EPHEMERIS_TYPE":0,"CLASSIFICATION_TYPE":"U","NORAD_CAT_ID":48972,"ELEMENT_SET_NO":999,"REV_AT_EPOCH":23194,"BSTAR":8.2962e-06,"MEAN_MOTION_DOT":1.6e-07,"MEAN_MOTION_DDOT":0.0},{"OBJECT_NAME":"ONEWEB-0255","OBJECT_ID":"2021-060G","EPOCH":"2026-04-20T06:52:33.499776","MEAN_MOTION":13.16595766,"ECCENTRICITY":0.0001907,"INCLINATION":87.9073,"RA_OF_ASC_NODE":240.2808,"ARG_OF_PERICENTER":95.303,"MEAN_ANOMALY":264.8319,"EPHEMERIS_TYPE":0,"CLASSIFICATION_TYPE":"U","NORAD_CAT_ID":48973,"ELEMENT_SET_NO":999,"REV_AT_EPOCH":23204,"BSTAR":0.00024725,"MEAN_MOTION_DOT":1.07e-06,"MEAN_MOTION_DDOT":0.0},{"OBJECT_NAME":"ONEWEB-0256","OBJECT_ID":"2021-060H","EPOCH":"2026-04-20T07:30:10.123488","MEAN_MOTION":13.16592974,"ECCENTRICITY":0.0002024,"INCLINATION":87.9067,"RA_OF_ASC_NODE":240.283,"ARG_OF_PERICENTER":102.7011,"MEAN_ANOMALY":257.4346,"EPHEMERIS_TYPE":0,"CLASSIFICATION_TYPE":"U","NORAD_CAT_ID":48974,"ELEMENT_SET_NO":999,"REV_AT_EPOCH":23201,"BSTAR":-0.00042079,"MEAN_MOTION_DOT":-1.48e-06,"MEAN_MOTION_DDOT":0.0},{"OBJECT_NAME":"ONEWEB-0257","OBJECT_ID":"2021-060J","EPOCH":"2026-04-20T02:48:37.039104","MEAN_MOTION":13.16593744,"ECCENTRICITY":0.0001998,"INCLINATION":87.907,"RA_OF_ASC_NODE":240.3058,"ARG_OF_PERICENTER":98.7426,"MEAN_ANOMALY":261.3931,"EPHEMERIS_TYPE":0,"CLASSIFICATION_TYPE":"U","NORAD_CAT_ID":48975,"ELEMENT_SET_NO":999,"REV_AT_EPOCH":23194,"BSTAR":5.7157e-05,"MEAN_MOTION_DOT":3.5e-07,"MEAN_MOTION_DDOT":0.0}]